STARLINK-33917          
1 64181U 25113M   26187.43314181  .00017303  00000+0  59555-3 0  9996
2 64181  53.1563 259.6969 0000859 102.2099 257.8998 15.30168019 63243
STARLINK-34131          
1 64182U 25113N   26187.48470277  .00007627  00000+0  26965-3 0  9998
2 64182  53.1576 259.3046 0000735  82.8201 277.2884 15.30163399 63215
STARLINK-34188          
1 64183U 25113P   26187.49506910  .00027031  00000+0  88002-3 0  9995
2 64183  53.1576 258.6626 0001214  98.5306 261.5833 15.31687079 63267
STARLINK-34197          
1 64184U 25113Q   26187.43839334  .00015516  00000+0  53477-3 0  9992
2 64184  53.1572 259.7323 0001282  80.1296 279.9850 15.30208649 63241
STARLINK-34063          
1 64185U 25113R   26187.48573108  .00029490  00000+0  95852-3 0  9991
2 64185  53.1571 258.6077 0001264  87.3063 272.8083 15.31693001 63269
STARLINK-34200          
1 64186U 25113S   26187.46239633  .00027320  00000+0  88938-3 0  9999
2 64186  53.1586 258.4605 0001446  79.7311 280.3853 15.31683419 63265
STARLINK-33934          
1 64187U 25113T   26187.49423704  .00028414  00000+0  96841-3 0  9994
2 64187  53.1564 259.3685 0001148 108.2370 251.8756 15.30179598 63219
STARLINK-33929          
1 64188U 25113U   26187.42680638  .00045504  00000+0  15399-2 0  9996
2 64188  53.1567 259.6535 0001514 115.4530 244.6627 15.30183352 63248
STARLINK-33872          
1 64189U 25113V   26187.58993705  .00034892  00000+0  10391-2 0  9991
2 64189  53.1582 256.4133 0001351  83.0023 277.1133 15.34398059 63262
STARLINK-34214          
1 64190U 25113W   26187.43947157  .00030677  00000+0  10441-2 0  9990
2 64190  53.1559 259.7341 0001080  68.7609 291.3507 15.30184747 63248
STARLINK-34222          
1 64191U 25113X   26187.44475200  .00025518  00000+0  87118-3 0  9991
2 64191  53.1579 259.7649 0001605  91.1406 268.9778 15.30183536 63201
STARLINK-34265          
1 64192U 25113Y   26187.43208544  .00036288  00000+0  12314-2 0  9997
2 64192  53.1575 259.6921 0001297  77.3874 282.7271 15.30197996 63209
STARLINK-34245          
1 64193U 25113Z   26187.48068873  .00021152  00000+0  63591-3 0  9990
2 64193  53.1571 257.1575 0000965  75.8851 284.2259 15.34373539 63243
STARLINK-34237          
1 64194U 25113AA  26187.47639588  .00038781  00000+0  12549-2 0  9999
2 64194  53.1576 258.5437 0001444  84.7130 275.4036 15.31701480 63223
STARLINK-33857          
1 64195U 25113AB  26187.47102285  .00021435  00000+0  73436-3 0  9990
2 64195  53.1588 259.2210 0001868  57.1759 302.9422 15.30172899 63214
STARLINK-34173          
1 64196U 25113AC  26187.42514756  .00037278  00000+0  12069-2 0  9992
2 64196  53.1576 258.9397 0001519  77.1733 282.9438 15.31704068 63259
SHIJIAN-26 (SJ-26)      
1 64199U 25115A   26187.69918635  .00004386  00000+0  18406-3 0  9996
2 64199  97.4545 266.1161 0017188 284.5323  75.4007 15.23874936 61413
NAVSTAR 84 (USA 545)    
1 64202U 25116A   26186.28378066 -.00000058  00000+0  00000+0 0  9994
2 64202  55.2485  30.4032 0008335 339.8111 199.4440  2.00574675  8232
STARLINK-33966          
1 64203U 25117A   26187.41185941  .00023134  00000+0  79155-3 0  9990
2 64203  53.1563 208.0802 0001008  96.9607 263.1509 15.30167732 62735
STARLINK-34331          
1 64204U 25117B   26187.58797058  .00016067  00000+0  48635-3 0  9993
2 64204  53.1590 206.3381 0001102  93.8356 266.2773 15.34352424 62747
STARLINK-34251          
1 64205U 25117C   26187.32110011  .00020639  00000+0  62073-3 0  9996
2 64205  53.1589 207.5179 0001168  53.5759 306.5351 15.34377958 62701
STARLINK-34311          
1 64206U 25117D   26187.47242551  .00021402  00000+0  64387-3 0  9997
2 64206  53.1580 207.0408 0001079  66.8663 293.2453 15.34344458 62754
STARLINK-34324          
1 64207U 25117E   26187.34337822  .00010395  00000+0  36303-3 0  9996
2 64207  53.1570 208.3638 0001021  93.9150 266.1968 15.30160955 61665
STARLINK-34327          
1 64208U 25117F   26187.52455329  .00017828  00000+0  61345-3 0  9992
2 64208  53.1588 207.3624 0001071  95.1698 264.9425 15.30154925 61681
STARLINK-33944          
1 64209U 25117G   26187.33810170  .00011102  00000+0  38695-3 0  9992
2 64209  53.1576 208.3395 0001160  81.6980 278.4153 15.30153769 62727
STARLINK-34310          
1 64210U 25117H   26187.33071324  .00008140  00000+0  28697-3 0  9993
2 64210  53.1585 208.2848 0000923  97.7683 262.3423 15.30161139 62693
STARLINK-34258          
1 64211U 25117J   26187.31689816  .00014736  00000+0  44703-3 0  9997
2 64211  53.1590 207.4884 0001082  96.3208 263.7918 15.34356343 62709
STARLINK-34284          
1 64212U 25117K   26187.45607131  .00008225  00000+0  28971-3 0  9998
2 64212  53.1589 207.6425 0001345  89.3341 270.7814 15.30178411 62711
STARLINK-34332          
1 64213U 25117L   26187.32321047  .00006720  00000+0  21013-3 0  9992
2 64213  53.1586 207.5277 0001147  88.5397 271.5737 15.34354198 62732
STARLINK-34283          
1 64214U 25117M   26187.45721220  .00023819  00000+0  71495-3 0  9991
2 64214  53.1582 205.5273 0001301  59.5596 300.5534 15.34351384 62747
