OBJECT_NAME,OBJECT_ID,EPOCH,MEAN_MOTION,ECCENTRICITY,INCLINATION,RA_OF_ASC_NODE,ARG_OF_PERICENTER,MEAN_ANOMALY,EPHEMERIS_TYPE,CLASSIFICATION_TYPE,NORAD_CAT_ID,ELEMENT_SET_NO,REV_AT_EPOCH,BSTAR,MEAN_MOTION_DOT,MEAN_MOTION_DDOT
STARLINK-33917,2025-113M,2026-07-06T10:23:43.452384,15.30168019,.0000859,53.1563,259.6969,102.2099,257.8998,0,U,64181,999,6324,.59555E-3,.17303E-3,0
STARLINK-34131,2025-113N,2026-07-06T11:37:58.319328,15.30163399,.0000735,53.1576,259.3046,82.8201,277.2884,0,U,64182,999,6321,.26965E-3,.7627E-4,0
STARLINK-34188,2025-113P,2026-07-06T11:52:53.970240,15.31687079,.0001214,53.1576,258.6626,98.5306,261.5833,0,U,64183,999,6326,.88002E-3,.27031E-3,0
STARLINK-34197,2025-113Q,2026-07-06T10:31:17.184576,15.30208649,.0001282,53.1572,259.7323,80.1296,279.9850,0,U,64184,999,6324,.53477E-3,.15516E-3,0
STARLINK-34063,2025-113R,2026-07-06T11:39:27.165312,15.31693001,.0001264,53.1571,258.6077,87.3063,272.8083,0,U,64185,999,6326,.95852E-3,.2949E-3,0
STARLINK-34200,2025-113S,2026-07-06T11:05:51.042912,15.31683419,.0001446,53.1586,258.4605,79.7311,280.3853,0,U,64186,999,6326,.88938E-3,.2732E-3,0
STARLINK-33934,2025-113T,2026-07-06T11:51:42.080256,15.30179598,.0001148,53.1564,259.3685,108.2370,251.8756,0,U,64187,999,6321,.96841E-3,.28414E-3,0
STARLINK-33929,2025-113U,2026-07-06T10:14:36.071232,15.30183352,.0001514,53.1567,259.6535,115.4530,244.6627,0,U,64188,999,6324,.15399E-2,.45504E-3,0
STARLINK-33872,2025-113V,2026-07-06T14:09:30.561120,15.34398059,.0001351,53.1582,256.4133,83.0023,277.1133,0,U,64189,999,6326,.10391E-2,.34892E-3,0
STARLINK-34214,2025-113W,2026-07-06T10:32:50.343648,15.30184747,.000108,53.1559,259.7341,68.7609,291.3507,0,U,64190,999,6324,.10441E-2,.30677E-3,0
STARLINK-34222,2025-113X,2026-07-06T10:40:26.572800,15.30183536,.0001605,53.1579,259.7649,91.1406,268.9778,0,U,64191,999,6320,.87118E-3,.25518E-3,0
STARLINK-34265,2025-113Y,2026-07-06T10:22:12.182016,15.30197996,.0001297,53.1575,259.6921,77.3874,282.7271,0,U,64192,999,6320,.12314E-2,.36288E-3,0
STARLINK-34245,2025-113Z,2026-07-06T11:32:11.506272,15.34373539,.0000965,53.1571,257.1575,75.8851,284.2259,0,U,64193,999,6324,.63591E-3,.21152E-3,0
STARLINK-34237,2025-113AA,2026-07-06T11:26:00.604032,15.31701480,.0001444,53.1576,258.5437,84.7130,275.4036,0,U,64194,999,6322,.12549E-2,.38781E-3,0
STARLINK-33857,2025-113AB,2026-07-06T11:18:16.374240,15.30172899,.0001868,53.1588,259.2210,57.1759,302.9422,0,U,64195,999,6321,.73436E-3,.21435E-3,0
STARLINK-34173,2025-113AC,2026-07-06T10:12:12.749184,15.31704068,.0001519,53.1576,258.9397,77.1733,282.9438,0,U,64196,999,6325,.12069E-2,.37278E-3,0
SHIJIAN-26 (SJ-26),2025-115A,2026-07-06T16:46:49.700640,15.23874936,.0017188,97.4545,266.1161,284.5323,75.4007,0,U,64199,999,6141,.18406E-3,.4386E-4,0
NAVSTAR 84 (USA 545),2025-116A,2026-07-05T06:48:38.649024,2.00574675,.0008335,55.2485,30.4032,339.8111,199.4440,0,U,64202,999,823,0,-.58E-6,0
STARLINK-33966,2025-117A,2026-07-06T09:53:04.653024,15.30167732,.00010087,53.1563,208.0802,96.9607,263.1509,0,U,64203,999,6273,.79154872E-3,.23134E-3,0
STARLINK-34331,2025-117B,2026-07-06T14:06:40.658112,15.34352424,.0001102,53.1590,206.3381,93.8356,266.2773,0,U,64204,999,6274,.48635E-3,.16067E-3,0
STARLINK-34251,2025-117C,2026-07-06T07:42:23.049504,15.34377958,.00011685,53.1589,207.5179,53.5759,306.5351,0,U,64205,999,6270,.62072684E-3,.20639E-3,0
STARLINK-34311,2025-117D,2026-07-06T11:20:17.564064,15.34344458,.00010797,53.1580,207.0408,66.8663,293.2453,0,U,64206,999,6275,.64387461E-3,.21402E-3,0
STARLINK-34324,2025-117E,2026-07-06T08:14:27.878208,15.30160955,.00010219,53.1570,208.3638,93.9150,266.1968,0,U,64207,999,6166,.36303015E-3,.10395E-3,0
STARLINK-34327,2025-117F,2026-07-06T12:35:21.404256,15.30154925,.0001071,53.1588,207.3624,95.1698,264.9425,0,U,64208,999,6168,.61345E-3,.17828E-3,0
STARLINK-33944,2025-117G,2026-07-06T08:06:51.986880,15.30153769,.00011601,53.1576,208.3395,81.6980,278.4153,0,U,64209,999,6272,.38695273E-3,.11102E-3,0
STARLINK-34310,2025-117H,2026-07-06T07:56:13.623936,15.30161139,.0000923,53.1585,208.2848,97.7683,262.3423,0,U,64210,999,6269,.28697357E-3,.814E-4,0
STARLINK-34258,2025-117J,2026-07-06T07:36:20.001024,15.34356343,.00010825,53.1590,207.4884,96.3208,263.7918,0,U,64211,999,6270,.4470309E-3,.14736E-3,0
STARLINK-34284,2025-117K,2026-07-06T10:56:44.561184,15.30178411,.00013451,53.1589,207.6425,89.3341,270.7814,0,U,64212,999,6271,.28970625E-3,.8225E-4,0
STARLINK-34332,2025-117L,2026-07-06T07:45:25.384608,15.34354198,.00011477,53.1586,207.5277,88.5397,271.5737,0,U,64213,999,6273,.21012951E-3,.672E-4,0
STARLINK-34283,2025-117M,2026-07-06T10:58:23.134080,15.34351384,.0001301,53.1582,205.5273,59.5596,300.5534,0,U,64214,999,6274,.71494615E-3,.23819E-3,0
